OBJECT_NAME,OBJECT_ID,EPOCH,MEAN_MOTION,ECCENTRICITY,INCLINATION,RA_OF_ASC_NODE,ARG_OF_PERICENTER,MEAN_ANOMALY,EPHEMERIS_TYPE,CLASSIFICATION_TYPE,NORAD_CAT_ID,ELEMENT_SET_NO,REV_AT_EPOCH,BSTAR,MEAN_MOTION_DOT,MEAN_MOTION_DDOT
STARLINK-35678,2025-288N,2026-07-15T21:17:31.638336,15.27599230,.0002548,43.0056,19.4494,257.7176,102.3391,0,U,66971,999,3489,.54605E-3,.14803E-3,0
STARLINK-34846,2025-288P,2026-07-15T21:00:52.660800,15.27584023,.0001397,43.0031,19.3629,259.1175,100.9519,0,U,66972,999,3489,.26409E-3,.7013E-4,0
STARLINK-35778,2025-288Q,2026-07-15T22:16:31.920672,15.27589465,.0001505,43.0015,18.9047,268.1564,91.9115,0,U,66973,999,3490,.39904E-3,.10738E-3,0
STARLINK-35780,2025-288R,2026-07-15T22:07:16.955328,15.27584976,.0001574,43.0004,18.8516,275.9495,84.1177,0,U,66974,999,3490,.4917E-3,.13295E-3,0
STARLINK-35777,2025-288S,2026-07-15T22:03:47.601216,15.27589200,.0001433,43.0011,19.6979,279.2431,80.8259,0,U,66975,999,3489,.32715E-3,.8753E-4,0
STARLINK-35772,2025-288T,2026-07-15T21:15:41.227776,15.27591491,.0001889,43.0039,19.4905,265.5485,94.5151,0,U,66976,999,3489,.36555E-3,.9814E-4,0
STARLINK-35770,2025-288U,2026-07-15T21:41:34.901952,15.27600176,.0000693,43.0017,19.5834,300.0889,59.9894,0,U,66977,999,3489,.48554E-3,.13131E-3,0
STARLINK-35787,2025-288V,2026-07-15T20:47:55.536864,15.27595931,.0001525,43.0018,19.3025,274.1794,85.8883,0,U,66978,999,3489,.48723E-3,.13176E-3,0
STARLINK-36107,2025-288W,2026-07-15T22:01:56.348256,15.27589722,.0002447,43.0029,19.6779,253.1501,106.9083,0,U,66979,999,3489,.39339E-3,.10582E-3,0
STARLINK-36086,2025-288X,2026-07-15T18:38:49.663680,15.27586573,.0001565,43.0010,20.3476,288.6207,71.4474,0,U,66980,999,3487,.31191559E-3,.8333E-4,0
STARLINK-36142,2025-288Y,2026-07-15T21:32:20.047200,15.27584391,.0001283,43.0030,19.5302,251.3210,108.7502,0,U,66981,999,3489,.301E-3,.8031E-4,0
STARLINK-36113,2025-288Z,2026-07-15T22:12:49.623840,15.27596154,.0002149,43.0043,18.8765,258.8476,101.2135,0,U,66982,999,3490,.28075E-3,.7475E-4,0
STARLINK-36145,2025-288AA,2026-07-15T21:34:11.415072,15.27578892,.0001535,43.0042,19.5384,287.2114,72.8569,0,U,66983,999,3489,.27174E-3,.7223E-4,0
STARLINK-35591,2025-288AB,2026-07-15T21:48:59.071392,15.27562611,.0002163,43.0046,19.6132,275.4184,84.6421,0,U,66984,999,3489,.23224E-3,.613E-4,0
STARLINK-36103,2025-288AC,2026-07-15T21:50:50.465184,15.27582996,.0001666,43.0030,19.6195,268.6447,91.4214,0,U,66985,999,3489,.29018E-3,.7732E-4,0
STARLINK-36135,2025-288AD,2026-07-15T21:23:05.646048,15.27584977,.0001057,43.0031,19.4776,324.1445,35.9336,0,U,66986,999,3489,.54865E-3,.14868E-3,0
STARLINK-36147,2025-288AE,2026-07-15T21:11:57.954624,15.27600433,.0002091,43.0063,19.4180,267.5175,92.5437,0,U,66987,999,3489,.18252E-3,.4767E-4,0
STARLINK-35660,2025-293A,2026-07-16T03:23:15.175968,14.98334162,.0003204,70.0015,130.7865,259.3064,100.7734,0,U,67003,999,3412,.19628E-3,.225E-4,0
STARLINK-35913,2025-293B,2026-07-16T02:35:09.232800,14.98332687,.0003439,70.0009,130.6709,254.0278,106.0502,0,U,67004,999,3411,-.74992E-4,-.988E-5,0
STARLINK-36148,2025-293C,2026-07-16T02:59:12.359040,14.98338051,.0003151,70.0013,130.7282,261.9944,98.0857,0,U,67005,999,3412,.21938E-3,.2526E-4,0
STARLINK-36156,2025-293D,2026-07-16T03:11:14.002944,14.98331905,.0003225,70.0014,130.7559,264.4160,95.6632,0,U,67006,999,3412,.27511E-3,.3191E-4,0
STARLINK-36123,2025-293E,2026-07-16T02:11:08.791008,14.98343593,.0003547,70.0013,130.6101,256.8324,103.2439,0,U,67007,999,3412,.4448E-3,.522E-4,0
STARLINK-36163,2025-293F,2026-07-16T02:47:10.379040,14.98332108,.000359,70.0013,130.6991,274.3399,85.7349,0,U,67008,999,3412,-.12862E-3,-.1627E-4,0
STARLINK-36118,2025-293G,2026-07-16T02:23:08.955744,14.98335024,.0003265,70.0015,130.6392,261.4909,98.5880,0,U,67009,999,3412,.31017E-3,.361E-4,0
STARLINK-36189,2025-293H,2026-07-16T03:29:13.461216,14.98333823,.0002618,70.0014,130.3977,257.4354,102.6513,0,U,67010,999,3413,.17251E-3,.1966E-4,0
STARLINK-36167,2025-293J,2026-07-16T03:35:14.121600,14.98334668,.0003115,70.0008,130.4112,259.5677,100.5131,0,U,67011,999,3413,.13469E-3,.1515E-4,0
STARLINK-36175,2025-293K,2026-07-16T03:17:14.671968,14.98346101,.0002784,70.0014,130.7696,258.9396,101.1450,0,U,67012,999,3412,.20755E-3,.2385E-4,0
STARLINK-35856,2025-293L,2026-07-16T03:05:12.851808,14.98324257,.0003748,70.0012,130.7404,264.5963,95.4769,0,U,67013,999,3412,.27474E-3,.3186E-4,0
STARLINK-36207,2025-293M,2026-07-16T02:53:11.790240,14.98335000,.0002803,70.0015,130.7102,269.7115,90.3723,0,U,67014,999,3412,.13658E-3,.1537E-4,0
STARLINK-36093,2025-293N,2026-07-16T02:29:09.407040,14.98335584,.0002712,70.0012,130.6529,259.7458,100.3395,0,U,67015,999,3412,.23266E-3,.2685E-4,0
