STARLINK-35678          
1 66971U 25288N   26196.88717174  .00014803  00000+0  54605-3 0  9999
2 66971  43.0056  19.4494 0002548 257.7176 102.3391 15.27599230 34890
STARLINK-34846          
1 66972U 25288P   26196.87560950  .00007013  00000+0  26409-3 0  9993
2 66972  43.0031  19.3629 0001397 259.1175 100.9519 15.27584023 34899
STARLINK-35778          
1 66973U 25288Q   26196.92814723  .00010738  00000+0  39904-3 0  9992
2 66973  43.0015  18.9047 0001505 268.1564  91.9115 15.27589465 34902
STARLINK-35780          
1 66974U 25288R   26196.92172402  .00013295  00000+0  49170-3 0  9991
2 66974  43.0004  18.8516 0001574 275.9495  84.1177 15.27584976 34900
STARLINK-35777          
1 66975U 25288S   26196.91930094  .00008753  00000+0  32715-3 0  9990
2 66975  43.0011  19.6979 0001433 279.2431  80.8259 15.27589200 34899
STARLINK-35772          
1 66976U 25288T   26196.88589384  .00009814  00000+0  36555-3 0  9994
2 66976  43.0039  19.4905 0001889 265.5485  94.5151 15.27591491 34897
STARLINK-35770          
1 66977U 25288U   26196.90387618  .00013131  00000+0  48554-3 0  9993
2 66977  43.0017  19.5834 0000693 300.0889  59.9894 15.27600176 34891
STARLINK-35787          
1 66978U 25288V   26196.86661501  .00013176  00000+0  48723-3 0  9992
2 66978  43.0018  19.3025 0001525 274.1794  85.8883 15.27595931 34892
STARLINK-36107          
1 66979U 25288W   26196.91801329  .00010582  00000+0  39339-3 0  9994
2 66979  43.0029  19.6779 0002447 253.1501 106.9083 15.27589722 34899
STARLINK-36086          
1 66980U 25288X   26196.77696370  .00008333  00000+0  31192-3 0  9998
2 66980  43.0010  20.3476 0001565 288.6207  71.4474 15.27586573 34879
STARLINK-36142          
1 66981U 25288Y   26196.89745425  .00008031  00000+0  30100-3 0  9991
2 66981  43.0030  19.5302 0001283 251.3210 108.7502 15.27584391 34892
STARLINK-36113          
1 66982U 25288Z   26196.92557435  .00007475  00000+0  28075-3 0  9997
2 66982  43.0043  18.8765 0002149 258.8476 101.2135 15.27596154 34902
STARLINK-36145          
1 66983U 25288AA  26196.89874323  .00007223  00000+0  27174-3 0  9992
2 66983  43.0042  19.5384 0001535 287.2114  72.8569 15.27578892 34891
STARLINK-35591          
1 66984U 25288AB  26196.90901703  .00006130  00000+0  23224-3 0  9996
2 66984  43.0046  19.6132 0002163 275.4184  84.6421 15.27562611 34892
STARLINK-36103          
1 66985U 25288AC  26196.91030631  .00007732  00000+0  29018-3 0  9997
2 66985  43.0030  19.6195 0001666 268.6447  91.4214 15.27582996 34892
STARLINK-36135          
1 66986U 25288AD  26196.89103757  .00014868  00000+0  54865-3 0  9991
2 66986  43.0031  19.4776 0001057 324.1445  35.9336 15.27584977 34896
STARLINK-36147          
1 66987U 25288AE  26196.88330966  .00004767  00000+0  18252-3 0  9992
2 66987  43.0063  19.4180 0002091 267.5175  92.5437 15.27600433 34897
STARLINK-35660          
1 67003U 25293A   26197.14114787  .00002250  00000+0  19628-3 0  9992
2 67003  70.0015 130.7865 0003204 259.3064 100.7734 14.98334162 34122
STARLINK-35913          
1 67004U 25293B   26197.10774575 -.00000988  00000+0 -74992-4 0  9990
2 67004  70.0009 130.6709 0003439 254.0278 106.0502 14.98332687 34112
STARLINK-36148          
1 67005U 25293C   26197.12444860  .00002526  00000+0  21938-3 0  9993
2 67005  70.0013 130.7282 0003151 261.9944  98.0857 14.98338051 34128
STARLINK-36156          
1 67006U 25293D   26197.13280096  .00003191  00000+0  27511-3 0  9996
2 67006  70.0014 130.7559 0003225 264.4160  95.6632 14.98331905 34122
STARLINK-36123          
1 67007U 25293E   26197.09107397  .00005220  00000+0  44480-3 0  9993
2 67007  70.0013 130.6101 0003547 256.8324 103.2439 14.98343593 34125
STARLINK-36163          
1 67008U 25293F   26197.11609235 -.00001627  00000+0 -12862-3 0  9993
2 67008  70.0013 130.6991 0003590 274.3399  85.7349 14.98332108 34122
STARLINK-36118          
1 67009U 25293G   26197.09940921  .00003610  00000+0  31017-3 0  9996
2 67009  70.0015 130.6392 0003265 261.4909  98.5880 14.98335024 34125
STARLINK-36189          
1 67010U 25293H   26197.14529469  .00001966  00000+0  17251-3 0  9990
2 67010  70.0014 130.3977 0002618 257.4354 102.6513 14.98333823 34138
STARLINK-36167          
1 67011U 25293J   26197.14946900  .00001515  00000+0  13469-3 0  9991
2 67011  70.0008 130.4112 0003115 259.5677 100.5131 14.98334668 34139
STARLINK-36175          
1 67012U 25293K   26197.13697537  .00002385  00000+0  20755-3 0  9992
2 67012  70.0014 130.7696 0002784 258.9396 101.1450 14.98346101 34124
STARLINK-35856          
1 67013U 25293L   26197.12862097  .00003186  00000+0  27474-3 0  9992
2 67013  70.0012 130.7404 0003748 264.5963  95.4769 14.98324257 34120
STARLINK-36207          
1 67014U 25293M   26197.12027535  .00001537  00000+0  13658-3 0  9990
2 67014  70.0015 130.7102 0002803 269.7115  90.3723 14.98335000 34128
STARLINK-36093          
1 67015U 25293N   26197.10358110  .00002685  00000+0  23266-3 0  9996
2 67015  70.0012 130.6529 0002712 259.7458 100.3395 14.98335584 34120
